{
  "type": "FeatureCollection",
  "features": [
    {
      "type": "Feature",
      "properties": {
        "norad_id": 29268,
        "name": "ARIRANG-2 (KOMPSAT-2)",
        "group": "resource",
        "lat": -78.59046290330055,
        "lon": -147.84905308949823,
        "alt_km": 680.0417153728413,
        "timestamp": "2025-12-06T09:34:16.574410+00:00",
        "meta_object_name": "ARIRANG-2 (KOMPSAT-2)",
        "meta_object_id": "2006-031A",
        "meta_epoch": "2025-12-05T23:14:24.823968",
        "meta_mean_motion": 14.64484228,
        "meta_eccentricity": 0.00138419,
        "meta_inclination": 97.8271,
        "meta_ra_of_asc_node": 168.7715,
        "meta_arg_of_pericenter": 331.6259,
        "meta_mean_anomaly": 198.7584,
        "meta_ephemeris_type": 0,
        "meta_classification_type": "U",
        "meta_norad_cat_id": 29268,
        "meta_element_set_no": 999,
        "meta_rev_at_epoch": 3319,
        "meta_bstar": 0.00014377981,
        "meta_mean_motion_dot": 7.17e-06,
        "meta_mean_motion_ddot": 0,
        "tle_line1": "1 29268U 06031A   25339.96834287  .00000717  00000+0  14378-3 0  9996",
        "tle_line2": "2 29268  97.8271 168.7715 0013841 331.6259 198.7584 14.64484228 33195"
      },
      "geometry": {
        "type": "Point",
        "coordinates": [
          -147.84905308949823,
          -78.59046290330055
        ]
      }
    },
    {
      "type": "Feature",
      "properties": {
        "norad_id": 29709,
        "name": "LAPAN-TUBSAT",
        "group": "resource",
        "lat": 81.86652677501903,
        "lon": -121.1280854039572,
        "alt_km": 594.5433516658486,
        "timestamp": "2025-12-06T09:34:16.574421+00:00",
        "meta_object_name": "LAPAN-TUBSAT",
        "meta_object_id": "2007-001A",
        "meta_epoch": "2025-12-05T23:28:07.668192",
        "meta_mean_motion": 14.85654744,
        "meta_eccentricity": 0.00136291,
        "meta_inclination": 98.1251,
        "meta_ra_of_asc_node": 329.9956,
        "meta_arg_of_pericenter": 94.2434,
        "meta_mean_anomaly": 266.0338,
        "meta_ephemeris_type": 0,
        "meta_classification_type": "U",
        "meta_norad_cat_id": 29709,
        "meta_element_set_no": 999,
        "meta_rev_at_epoch": 2246,
        "meta_bstar": 0.00014950002,
        "meta_mean_motion_dot": 1.24e-05,
        "meta_mean_motion_ddot": 0,
        "tle_line1": "1 29709U 07001A   25339.97786653  .00001240  00000+0  14950-3 0  9996",
        "tle_line2": "2 29709  98.1251 329.9956 0013629  94.2434 266.0338 14.85654744 22465"
      },
      "geometry": {
        "type": "Point",
        "coordinates": [
          -121.1280854039572,
          81.86652677501903
        ]
      }
    },
    {
      "type": "Feature",
      "properties": {
        "norad_id": 31113,
        "name": "HAIYANG-1B",
        "group": "resource",
        "lat": 37.01953128924313,
        "lon": 151.28292781566262,
        "alt_km": 785.2755970127246,
        "timestamp": "2025-12-06T09:34:16.574432+00:00",
        "meta_object_name": "HAIYANG-1B",
        "meta_object_id": "2007-010A",
        "meta_epoch": "2025-12-05T22:50:25.239264",
        "meta_mean_motion": 14.30961499,
        "meta_eccentricity": 0.00145226,
        "meta_inclination": 98.3308,
        "meta_ra_of_asc_node": 324.5105,
        "meta_arg_of_pericenter": 56.7967,
        "meta_mean_anomaly": 303.4607,
        "meta_ephemeris_type": 0,
        "meta_classification_type": "U",
        "meta_norad_cat_id": 31113,
        "meta_element_set_no": 999,
        "meta_rev_at_epoch": 97299,
        "meta_bstar": 0.00010703251,
        "meta_mean_motion_dot": 2.4e-06,
        "meta_mean_motion_ddot": 0,
        "tle_line1": "1 31113U 07010A   25339.95168101  .00000240  00000+0  10703-3 0  9999",
        "tle_line2": "2 31113  98.3308 324.5105 0014522  56.7967 303.4607 14.30961499972991"
      },
      "geometry": {
        "type": "Point",
        "coordinates": [
          151.28292781566262,
          37.01953128924313
        ]
      }
    },
    {
      "type": "Feature",
      "properties": {
        "norad_id": 31598,
        "name": "COSMO-SKYMED 1",
        "group": "resource",
        "lat": 2.8357951312782355,
        "lon": -13.849858026897605,
        "alt_km": 583.0363616885143,
        "timestamp": "2025-12-06T09:34:16.574443+00:00",
        "meta_object_name": "COSMO-SKYMED 1",
        "meta_object_id": "2007-023A",
        "meta_epoch": "2025-12-05T23:08:55.811904",
        "meta_mean_motion": 14.95688612,
        "meta_eccentricity": 0.00012097,
        "meta_inclination": 97.8836,
        "meta_ra_of_asc_node": 165.32,
        "meta_arg_of_pericenter": 78.17,
        "meta_mean_anomaly": 281.9656,
        "meta_ephemeris_type": 0,
        "meta_classification_type": "U",
        "meta_norad_cat_id": 31598,
        "meta_element_set_no": 999,
        "meta_rev_at_epoch": 89,
        "meta_bstar": 0.00052331344,
        "meta_mean_motion_dot": 5.766e-05,
        "meta_mean_motion_ddot": 0,
        "tle_line1": "1 31598U 07023A   25339.96453486  .00005766  00000+0  52331-3 0  9995",
        "tle_line2": "2 31598  97.8836 165.3200 0001209  78.1700 281.9656 14.95688612   895"
      },
      "geometry": {
        "type": "Point",
        "coordinates": [
          -13.849858026897605,
          2.8357951312782355
        ]
      }
    },
    {
      "type": "Feature",
      "properties": {
        "norad_id": 31698,
        "name": "TERRASAR-X",
        "group": "resource",
        "lat": 18.91193549239069,
        "lon": -16.695654254892656,
        "alt_km": 508.0592164566842,
        "timestamp": "2025-12-06T09:34:16.574457+00:00",
        "meta_object_name": "TERRASAR-X",
        "meta_object_id": "2007-026A",
        "meta_epoch": "2025-12-05T14:31:03.290880",
        "meta_mean_motion": 15.19155481,
        "meta_eccentricity": 0.00018634,
        "meta_inclination": 97.4446,
        "meta_ra_of_asc_node": 345.0897,
        "meta_arg_of_pericenter": 81.8163,
        "meta_mean_anomaly": 278.3283,
        "meta_ephemeris_type": 0,
        "meta_classification_type": "U",
        "meta_norad_cat_id": 31698,
        "meta_element_set_no": 999,
        "meta_rev_at_epoch": 2383,
        "meta_bstar": 0.00015422933,
        "meta_mean_motion_dot": 3.174e-05,
        "meta_mean_motion_ddot": 0,
        "tle_line1": "1 31698U 07026A   25339.60489920  .00003174  00000+0  15423-3 0  9994",
        "tle_line2": "2 31698  97.4446 345.0897 0001863  81.8163 278.3283 15.19155481 23833"
      },
      "geometry": {
        "type": "Point",
        "coordinates": [
          -16.695654254892656,
          18.91193549239069
        ]
      }
    },
    {
      "type": "Feature",
      "properties": {
        "norad_id": 32060,
        "name": "WORLDVIEW-1 (WV-1)",
        "group": "resource",
        "lat": -74.35594581529546,
        "lon": -109.61893004281836,
        "alt_km": 499.9908675423658,
        "timestamp": "2025-12-06T09:34:16.574479+00:00",
        "meta_object_name": "WORLDVIEW-1 (WV-1)",
        "meta_object_id": "2007-041A",
        "meta_epoch": "2025-12-05T21:25:26.858208",
        "meta_mean_motion": 15.24515459,
        "meta_eccentricity": 7.092e-05,
        "meta_inclination": 97.3844,
        "meta_ra_of_asc_node": 97.4713,
        "meta_arg_of_pericenter": 100.343,
        "meta_mean_anomaly": 259.7887,
        "meta_ephemeris_type": 0,
        "meta_classification_type": "U",
        "meta_norad_cat_id": 32060,
        "meta_element_set_no": 999,
        "meta_rev_at_epoch": 1343,
        "meta_bstar": 0.00051440308,
        "meta_mean_motion_dot": 0.00012591,
        "meta_mean_motion_ddot": 0,
        "tle_line1": "1 32060U 07041A   25339.89267197  .00012591  00000+0  51440-3 0  9998",
        "tle_line2": "2 32060  97.3844  97.4713 0000709 100.3430 259.7887 15.24515459 13434"
      },
      "geometry": {
        "type": "Point",
        "coordinates": [
          -109.61893004281836,
          -74.35594581529546
        ]
      }
    },
    {
      "type": "Feature",
      "properties": {
        "norad_id": 32289,
        "name": "YAOGAN-3",
        "group": "resource",
        "lat": 18.95288610718498,
        "lon": -170.20770091028598,
        "alt_km": 598.6872771942062,
        "timestamp": "2025-12-06T09:34:16.574494+00:00",
        "meta_object_name": "YAOGAN-3",
        "meta_object_id": "2007-055A",
        "meta_epoch": "2025-12-05T23:10:50.108736",
        "meta_mean_motion": 14.89808486,
        "meta_eccentricity": 0.00015278,
        "meta_inclination": 97.8368,
        "meta_ra_of_asc_node": 6.6523,
        "meta_arg_of_pericenter": 77.9663,
        "meta_mean_anomaly": 282.1725,
        "meta_ephemeris_type": 0,
        "meta_classification_type": "U",
        "meta_norad_cat_id": 32289,
        "meta_element_set_no": 999,
        "meta_rev_at_epoch": 97708,
        "meta_bstar": 0.00051203166,
        "meta_mean_motion_dot": 4.86e-05,
        "meta_mean_motion_ddot": 0,
        "tle_line1": "1 32289U 07055A   25339.96585774  .00004860  00000+0  51203-3 0  9995",
        "tle_line2": "2 32289  97.8368   6.6523 0001527  77.9663 282.1725 14.89808486977086"
      },
      "geometry": {
        "type": "Point",
        "coordinates": [
          -170.20770091028598,
          18.95288610718498
        ]
      }
    }
  ]
}